NORAD_CAT_ID,OBJECT_NAME,OBJECT_TYPE,EPOCH,MEAN_MOTION,ECCENTRICITY,INCLINATION,RA_OF_ASC_NODE,ARG_OF_PERICENTER,MEAN_ANOMALY,BSTAR,MEAN_MOTION_DOT,MEAN_MOTION_DDOT,TLE_LINE0,TLE_LINE1,TLE_LINE2,SEMIMAJOR_AXIS,PERIOD,APOGEE,PERIGEE,DECAYED
51729.0,STARLINK-3523,PAYLOAD,2022-06-24 14:00:01,15.08813755,0.0001883,53.2147,277.9239,53.1552,185.5315,0.00014713,2.053e-05,0.0,0 STARLINK-3523,1 51729U 22016R   22175.58334491  .00002053  00000-0  14713-3 0  9998,2 51729  53.2147 277.9239 0001883  53.1552 185.5315 15.08813755  1303,6917.9609999999975,95.439,541.128,538.523,0.0
51729.0,STARLINK-3523,PAYLOAD,2022-06-24 22:00:01,15.0883925,0.0001822,53.2146,276.4267,52.3466,197.9634,-0.0018901,-0.00030243,0.0,0 STARLINK-3523,1 51729U 22016R   22175.91668981 -.00030243  00000-0 -18901-2 0  9995,2 51729  53.2146 276.4267 0001822  52.3466 197.9634 15.08839250 20327,6917.8830000000025,95.438,541.008,538.487,0.0
51729.0,STARLINK-3523,PAYLOAD,2022-06-25 14:00:01,15.08830401,0.0001951,53.215,273.4347,52.4451,220.9713,0.00051156,7.861e-05,0.0,0 STARLINK-3523,1 51729U 22016R   22176.58334491  .00007861  00000-0  51156-3 0  9993,2 51729  53.2150 273.4347 0001951  52.4451 220.9713 15.08830401  1307,6917.91,95.438,541.124,538.425,0.0
51729.0,STARLINK-3523,PAYLOAD,2022-06-25 16:00:00,15.08818055,0.0001959,53.2152,273.0609,51.6157,314.701,0.0025202,0.00040025,0.0,0 STARLINK-3523,1 51729U 22016R   22176.66667824  .00040025  00000-0  25202-2 0  9992,2 51729  53.2152 273.0609 0001959  51.6157 314.7010 15.08818055 20436,6917.946999999999,95.439,541.168,538.457,0.0
51729.0,STARLINK-3523,PAYLOAD,2022-06-25 22:00:00,15.08865224,0.0001872,53.215,271.9375,51.5162,233.4911,-0.0017201,-0.00027579,0.0,0 STARLINK-3523,1 51729U 22016R   22176.91667824 -.00027579  00000-0 -17201-2 0  9991,2 51729  53.2150 271.9375 0001872  51.5162 233.4911 15.08865224  1302,6917.803000000001,95.436,540.9630000000002,538.373,0.0
51729.0,STARLINK-3523,PAYLOAD,2022-06-26 14:00:01,15.08843452,0.0001921,53.2154,268.9454,49.7182,258.5929,5.1039e-05,5.24e-06,0.0,0 STARLINK-3523,1 51729U 22016R   22177.58335648  .00000524  00000-0  51039-4 0  9999,2 51729  53.2154 268.9454 0001921  49.7182 258.5929 15.08843452 20572,6917.87,95.437,541.064,538.406,0.0
51729.0,STARLINK-3523,PAYLOAD,2022-06-26 22:00:00,15.08858042,0.0001764,53.2154,267.4482,47.6281,272.217,-0.0034993,-0.00055578,0.0,0 STARLINK-3523,1 51729U 22016R   22177.91667824 -.00055578  00000-0 -34993-2 0  9999,2 51729  53.2154 267.4482 0001764  47.6281 272.2170 15.08858042  1301,6917.825,95.436,540.911,538.47,0.0
51729.0,STARLINK-3523,PAYLOAD,2022-06-27 06:00:00,15.08804197,0.0001855,53.2173,265.96,50.7129,280.68,0.0034356,0.00054761,0.0,0 STARLINK-3523,1 51729U 22016R   22178.25001157  .00054761  00000-0  34356-2 0  9992,2 51729  53.2173 265.9600 0001855  50.7129 280.6800 15.08804197 20670,6917.99,95.44,541.138,538.572,0.0
51729.0,STARLINK-3523,PAYLOAD,2022-06-27 14:00:01,15.08824769,0.0001857,53.2158,264.4565,46.7719,296.2528,0.0010735,0.00016831,0.0,0 STARLINK-3523,1 51729U 22016R   22178.58334491  .00016831  00000-0  10735-2 0  9999,2 51729  53.2158 264.4565 0001857  46.7719 296.2528 15.08824769  1305,6917.927,95.439,541.077,538.507,0.0
51729.0,STARLINK-3523,PAYLOAD,2022-06-27 22:00:00,15.08857068,0.0001759,53.2156,262.959,47.6209,306.9889,-0.0017480999999999,-0.00028015,0.0,0 STARLINK-3523,1 51729U 22016R   22178.91667824 -.00028015  00000-0 -17481-2 0  9999,2 51729  53.2156 262.9590 0001759  47.6209 306.9889 15.08857068  1306,6917.828,95.436,540.91,538.476,0.0
51729.0,STARLINK-3523,PAYLOAD,2022-06-28 06:00:00,15.0884956,0.000172,53.216,261.4621,54.1083,312.0954,-0.0019236,-0.0003078,0.0,0 STARLINK-3523,1 51729U 22016R   22179.25001157 -.00030780  00000-0 -19236-2 0  9990,2 51729  53.2160 261.4621 0001720  54.1083 312.0954 15.08849560 20828,6917.851,95.437,540.906,538.526,0.0
51729.0,STARLINK-3523,PAYLOAD,2022-06-28 14:00:01,15.08808907,0.0001943,53.2157,259.9676,49.4673,328.3323,0.0010613,0.00016629,0.0,0 STARLINK-3523,1 51729U 22016R   22179.58334491  .00016629  00000-0  10613-2 0  9990,2 51729  53.2157 259.9676 0001943  49.4673 328.3323 15.08808907  1307,6917.975,95.44,541.185,538.496,0.0
51729.0,STARLINK-3523,PAYLOAD,2022-06-28 22:00:00,15.08835214,0.0001818,53.2154,258.47,51.1158,338.2489,-0.0016986,-0.00027216,0.0,0 STARLINK-3523,1 51729U 22016R   22179.91667824 -.00027216  00000-0 -16986-2 0  9991,2 51729  53.2154 258.4700 0001818  51.1158 338.2489 15.08835214  1309,6917.895,95.438,541.018,538.502,0.0
51729.0,STARLINK-3523,PAYLOAD,2022-06-29 14:00:01,15.08816188,0.0001908,53.2153,255.4788,49.8565,2.6701,0.0012927,0.00020332,0.0,0 STARLINK-3523,1 51729U 22016R   22180.58334491  .00020332  00000-0  12927-2 0  9998,2 51729  53.2153 255.4788 0001908  49.8565   2.6701 15.08816188  1305,6917.953,95.439,541.138,538.498,0.0
51729.0,STARLINK-3523,PAYLOAD,2022-06-29 22:00:00,15.08840278,0.0001781,53.2149,253.9811,52.5439,11.5604,-0.0013462,-0.00021649,0.0,0 STARLINK-3523,1 51729U 22016R   22180.91667824 -.00021649  00000-0 -13462-2 0  9993,2 51729  53.2149 253.9811 0001781  52.5439  11.5604 15.08840278  1308,6917.88,95.438,540.977,538.512,0.0
51729.0,STARLINK-3523,PAYLOAD,2022-06-30 14:00:01,15.08820538,0.0001886,53.2159,250.9899,50.4348,36.8521,0.0016934,0.00026751,0.0,0 STARLINK-3523,1 51729U 22016R   22181.58334491  .00026751  00000-0  16934-2 0  9992,2 51729  53.2159 250.9899 0001886  50.4348  36.8521 15.08820538  1309,6917.94,95.439,541.11,538.5,0.0
51729.0,STARLINK-3523,PAYLOAD,2022-06-30 16:00:00,15.08817296,0.0001885,53.2162,250.6158,48.9425,131.2417,0.0025269,0.00040132,0.0,0 STARLINK-3523,1 51729U 22016R   22181.66667824  .00040132  00000-0  25269-2 0  9990,2 51729  53.2162 250.6158 0001885  48.9425 131.2417 15.08817296 21195,6917.95,95.439,541.119,538.511,0.0
51729.0,STARLINK-3523,PAYLOAD,2022-06-30 22:00:00,15.08842919,0.0001763,53.2161,249.4921,53.7836,45.0891,-0.00093686,-0.00015169,0.0,0 STARLINK-3523,1 51729U 22016R   22181.91667824 -.00015169  00000-0 -93686-3 0  9991,2 51729  53.2161 249.4921 0001763  53.7836  45.0891 15.08842919  1302,6917.871,95.437,540.956,538.5169999999998,0.0
51729.0,STARLINK-3523,PAYLOAD,2022-07-01 06:00:00,15.08852192,0.0001767,53.2159,247.9957,57.1304,53.3303,-0.0006642,-0.00010847,0.0,0 STARLINK-3523,1 51729U 22016R   22182.25001157 -.00010847  00000-0 -66420-3 0  9994,2 51729  53.2159 247.9957 0001767  57.1304  53.3303 15.08852192 21286,6917.843000000003,95.437,540.931,538.486,0.0
51729.0,STARLINK-3523,PAYLOAD,2022-07-01 14:00:01,15.08822442,0.0001901,53.2157,246.501,50.5412,71.5277,0.0022019,0.00034913,0.0,0 STARLINK-3523,1 51729U 22016R   22182.58334491  .00034913  00000-0  22019-2 0  9993,2 51729  53.2157 246.5010 0001901  50.5412  71.5277 15.08822442  1304,6917.934,95.439,541.114,538.484,0.0
51729.0,STARLINK-3523,PAYLOAD,2022-07-01 22:00:00,15.08845482,0.0001778,53.2154,245.003,54.0534,79.6087,-0.00046706,-7.715e-05,0.0,0 STARLINK-3523,1 51729U 22016R   22182.91667824 -.00007715  00000-0 -46706-3 0  9991,2 51729  53.2154 245.0030 0001778  54.0534  79.6087 15.08845482  1300,6917.864000000001,95.437,540.9590000000002,538.499,0.0
51729.0,STARLINK-3523,PAYLOAD,2022-07-02 14:00:01,15.08826836,0.0001959,53.2153,242.0117,49.8829,106.9896,0.0027425,0.00043614,0.0,0 STARLINK-3523,1 51729U 22016R   22183.58334491  .00043614  00000-0  27425-2 0  9998,2 51729  53.2153 242.0117 0001959  49.8829 106.9896 15.08826836  1306,6917.920999999999,95.438,541.141,538.43,0.0
51729.0,STARLINK-3523,PAYLOAD,2022-07-02 22:00:00,15.08858301,0.0001813,53.2153,240.5135,53.0828,115.4006,-1.8415e-05,-5.81e-06,0.0,0 STARLINK-3523,1 51729U 22016R   22183.91667824 -.00000581  00000-0 -18415-4 0  9993,2 51729  53.2153 240.5135 0001813  53.0828 115.4006 15.08858301  1304,6917.824000000001,95.436,540.944,538.435,0.0
51729.0,STARLINK-3523,PAYLOAD,2022-07-03 14:00:01,15.08825302,0.0001918,53.2154,237.5222,46.3816,145.3289,0.00095077,0.0001486999999999,0.0,0 STARLINK-3523,1 51729U 22016R   22184.58334491  .00014870  00000-0  95077-3 0  9990,2 51729  53.2154 237.5222 0001918  46.3816 145.3289 15.08825302  1306,6917.925,95.438,541.117,538.4630000000002,0.0
51729.0,STARLINK-3523,PAYLOAD,2022-07-03 22:00:00,15.08813897,0.0001710999999999,53.2156,236.024,48.3561,154.9448,5.185600000000001e-05,5.37e-06,0.0,0 STARLINK-3523,1 51729U 22016R   22184.91667824  .00000537  00000-0  51856-4 0  9999,2 51729  53.2156 236.0240 0001711  48.3561 154.9448 15.08813897  1301,6917.96,95.439,541.009,538.6419999999998,0.0
51729.0,STARLINK-3523,PAYLOAD,2022-07-04 06:00:00,15.088317300000002,0.0001781999999999,53.2159,234.528,50.7206,164.1382,-0.0013238,-0.0002129,0.0,0 STARLINK-3523,1 51729U 22016R   22185.25001157 -.00021290  00000-0 -13238-2 0  9999,2 51729  53.2159 234.5280 0001782  50.7206 164.1382 15.08831730 21737,6917.906,95.438,541.003,538.538,0.0
51729.0,STARLINK-3523,PAYLOAD,2022-07-04 14:00:01,15.08797581,0.0001938,53.2159,233.033,44.6662,181.775,0.0030138,0.00047948,0.0,0 STARLINK-3523,1 51729U 22016R   22185.58334491  .00047948  00000-0  30138-2 0  9999,2 51729  53.2159 233.0330 0001938  44.6662 181.7750 15.08797581  1308,6918.01,95.44,541.216,538.534,0.0
51729.0,STARLINK-3523,PAYLOAD,2022-07-04 22:00:00,15.08815074,0.0001774999999999,53.2162,231.5347,48.8581,189.1574,0.0011967,0.00018796,0.0,0 STARLINK-3523,1 51729U 22016R   22185.91667824  .00018796  00000-0  11967-2 0  9993,2 51729  53.2162 231.5347 0001775  48.8581 189.1574 15.08815074 21832,6917.956999999999,95.439,541.05,538.594,0.0
51729.0,STARLINK-3523,PAYLOAD,2022-07-05 14:00:01,15.08812442,0.0001971,53.2163,228.5437,45.0361,216.1426,0.0027475,0.00043677,0.0,0 STARLINK-3523,1 51729U 22016R   22186.58334491  .00043677  00000-0  27475-2 0  9995,2 51729  53.2163 228.5437 0001971  45.0361 216.1426 15.08812442  1305,6917.965,95.439,541.193,538.466,0.0
